{
  "norad_id": 67791,
  "name": "KUIPER-00270",
  "history": [
    {
      "epoch": "2026-03-28T09:36:55.890432",
      "apogee_km": 468.4648240743254,
      "perigee_km": 453.1286519455125,
      "latitude_deg": 50.98950106820978,
      "longitude_deg": -82.43789952015504,
      "semi_major_axis_km": 6838.933738009919,
      "eccentricity": 0.00112124,
      "inclination_deg": 51.8814,
      "raan_deg": 129.2251,
      "arg_perigee_deg": 117.3981,
      "mean_anomaly_deg": 242.8147,
      "mean_motion_rev_day": 15.35041666
    }
  ]
}